FLOCK 4BE-28            
1 60519U 24149BD  26199.79205388  .00026366  00000+0  53211-3 0  9997
2 60519  97.3738 286.0750 0005497 165.0522 195.0891 15.46484379107321
IPERDRONE.0             
1 60520U 24149BE  26199.80996539  .00065054  00000+0  50682-3 0  9992
2 60520  97.3764 294.6984 0003932 160.2066 199.9350 15.71516311107871
TRANSPORTER-11 OBJECT BF
1 60521U 24149BF  26199.77466425  .01754115  24202-5  93240-3 0  9992
2 60521  97.3744 298.7708 0011722 256.4189 103.5794 16.19859196108125
CONNECTA IOT-2          
1 60522U 24149BG  26199.75989428  .00002145  00000+0  90896-4 0  9991
2 60522  97.3829 277.4304 0005898 198.7810 161.3210 15.24210891106707
CONNECTA IOT-4          
1 60524U 24149BJ  26199.73045520  .00009397  00000+0  21331-3 0  9990
2 60524  97.3786 284.4982 0006227 163.7350 196.4098 15.43247301107193
ORESAT0.5               
1 60525U 24149BK  26199.77570039  .00012035  00000+0  24670-3 0  9995
2 60525  97.3715 286.2849 0006457 153.5126 206.6455 15.46194847107359
DEIMOS                  
1 60526U 24149BL  26199.76132051  .00010247  00000+0  21708-3 0  9995
2 60526  97.3773 286.3933 0006385 158.8431 201.3083 15.45273294107325
CUAVA-2                 
1 60527U 24149BM  26199.73462091  .00006592  00000+0  18556-3 0  9998
2 60527  97.3714 281.3210 0007300 167.4289 192.7138 15.36783191107011
ERNST                   
1 60528U 24149BN  26199.75683907  .00006921  00000+0  17581-3 0  9995
2 60528  97.3797 283.7299 0006567 167.4234 192.7177 15.39948891107139
TORO                    
1 60530U 24149BQ  26199.73323160  .00000671  00000+0  64060-4 0  9999
2 60530  97.6770 273.8120 0001205 108.0971 252.0382 14.96521028104677
HYPSO-2                 
1 60531U 24149BR  26199.71073653  .00000799  00000+0  70857-4 0  9999
2 60531  97.6837 275.5146 0001598  96.9663 263.1742 14.98942135104779
LEMU NGE                
1 60532U 24149BS  26199.70941579  .00000686  00000+0  67771-4 0  9996
2 60532  97.6834 274.0322 0000532 102.1779 257.9501 14.95067780104665
LEMUR-2-STELLA          
1 60533U 24149BT  26199.77882273  .00006185  00000+0  35988-3 0  9993
2 60533  97.6731 282.3852 0001246 124.1125 236.0223 15.12413075105273
SATELIOT_2              
1 60534U 24149BU  26199.72166014  .00000318  00000+0  33051-4 0  9999
2 60534  97.6817 274.1028 0001319  76.0483 284.0885 14.96462901104680
NIGHTJAR                
1 60535U 24149BV  26199.76407563  .00002180  00000+0  18391-3 0  9999
2 60535  97.6846 276.0286 0002779  89.2700 270.8841 14.99185535147601
LEMUR-2-MARHISYAM       
1 60536U 24149BW  26199.77114108  .00005065  00000+0  30038-3 0  9998
2 60536  97.6874 282.8575 0002282  64.0829 296.0636 15.11816351105250
SATELIOT_4              
1 60537U 24149BX  26199.72611083  .00000434  00000+0  42969-4 0  9990
2 60537  97.6724 273.6128 0000763 312.3293  47.7863 14.96762143104694
PICO-02A021             
1 60538U 24149BY  26199.44855741  .00002316  00000+0  17431-3 0  9997
2 60538  97.6730 278.0155 0003902 266.4900  93.5879 15.03502570104436
ICEYE-X43               
1 60539U 24149BZ  26199.78764330  .00000570  00000+0  50859-4 0  9990
2 60539  97.6788 276.3284 0006373 331.4769  28.6105 14.99791438104859
HAWK-10A                
1 60540U 24149CA  26199.72821378  .00000230  00000+0  25212-4 0  9990
2 60540  97.6883 275.0977 0002747 348.6769  11.4390 14.96594514104706
UMBRA-09                
1 60541U 24149CB  26199.82923301  .00007667  00000+0  37063-3 0  9998
2 60541  97.6967 287.5968 0002021 193.2721 166.8460 15.18912204105524
QPS-SAR-8 (AMATERU-IV)  
1 60542U 24149CC  26199.78986917  .00001889  00000+0  13968-3 0  9994
2 60542  97.6646 278.6793 0003203  31.1422 328.9993 15.04409378105022
ARCTIC WEATHER SATELLITE
1 60543U 24149CD  26199.78814927  .00000336  00000+0  40612-4 0  9999
2 60543  97.6788 269.3482 0002676  43.1692 316.9736 14.89806784104000
CAPELLA-15 (ACADIA-5)   
1 60544U 24149CE  26199.76790108  .00001579  00000+0  15961-3 0  9990
2 60544  97.6759 271.8791 0003065 324.5067  35.5948 14.92397955104564
HAWK-10B                
1 60545U 24149CF  26199.79493920  .00000329  00000+0  33939-4 0  9994
2 60545  97.6801 274.4863 0005033   1.5215 358.6021 14.96593783104715
ICEYE-X39               
1 60546U 24149CG  26199.76349882  .00002125  00000+0  17520-3 0  9992
2 60546  97.6797 276.3631 0006840  36.6772 323.4918 15.00088707104859
UMBRA-10                
1 60547U 24149CH  26199.82877713  .00007800  00000+0  37699-3 0  9993
2 60547  97.6969 287.6268 0001922 159.4270 200.7041 15.18912544105539
ICEYE-X33               
1 60548U 24149CJ  26199.76993529  .00002430  00000+0  19563-3 0  9995
2 60548  97.7374 278.7543 0001863  70.9954 289.1471 15.00902716104941
ICEYE-X40               
1 60549U 24149CK  26199.16276579  .00001523  00000+0  13359-3 0  9998
2 60549  97.6805 275.1599 0003649 355.3306   4.7882 14.98084258104717
SATELIOT_1              
1 60550U 24149CL  26199.75257765  .00001250  00000+0  11032-3 0  9994
2 60550  97.6734 275.1249 0005259 342.4307  17.6733 14.98171451104797
