OBJECT_NAME,OBJECT_ID,EPOCH,MEAN_MOTION,ECCENTRICITY,INCLINATION,RA_OF_ASC_NODE,ARG_OF_PERICENTER,MEAN_ANOMALY,EPHEMERIS_TYPE,CLASSIFICATION_TYPE,NORAD_CAT_ID,ELEMENT_SET_NO,REV_AT_EPOCH,BSTAR,MEAN_MOTION_DOT,MEAN_MOTION_DDOT
FLOCK 4BE-28,2024-149BD,2026-07-18T19:00:33.455232,15.46484379,.0005497,97.3738,286.0750,165.0522,195.0891,0,U,60519,999,10732,.53211E-3,.26366E-3,0
IPERDRONE.0,2024-149BE,2026-07-18T19:26:21.009696,15.71516311,.0003932,97.3764,294.6984,160.2066,199.9350,0,U,60520,999,10787,.50682E-3,.65054E-3,0
TRANSPORTER-11 OBJECT BF,2024-149BF,2026-07-18T18:35:30.991200,16.19859196,.0011722,97.3744,298.7708,256.4189,103.5794,0,U,60521,999,10812,.9324E-3,.1754115E-1,.24202E-5
CONNECTA IOT-2,2024-149BG,2026-07-18T18:14:14.865792,15.24210891,.0005898,97.3829,277.4304,198.7810,161.3210,0,U,60522,999,10670,.90896E-4,.2145E-4,0
CONNECTA IOT-4,2024-149BJ,2026-07-18T17:31:51.329280,15.43247301,.0006227,97.3786,284.4982,163.7350,196.4098,0,U,60524,999,10719,.21331E-3,.9397E-4,0
ORESAT0.5,2024-149BK,2026-07-18T18:37:00.513696,15.46194847,.0006457,97.3715,286.2849,153.5126,206.6455,0,U,60525,999,10735,.2467E-3,.12035E-3,0
DEIMOS,2024-149BL,2026-07-18T18:16:18.092064,15.45273294,.0006385,97.3773,286.3933,158.8431,201.3083,0,U,60526,999,10732,.21708E-3,.10247E-3,0
CUAVA-2,2024-149BM,2026-07-18T17:37:51.246624,15.36783191,.00073,97.3714,281.3210,167.4289,192.7138,0,U,60527,999,10701,.18556E-3,.6592E-4,0
ERNST,2024-149BN,2026-07-18T18:09:50.895648,15.39948891,.0006567,97.3797,283.7299,167.4234,192.7177,0,U,60528,999,10713,.17581E-3,.6921E-4,0
TORO,2024-149BQ,2026-07-18T17:35:51.210240,14.96521028,.0001205,97.6770,273.8120,108.0971,252.0382,0,U,60530,999,10467,.6406E-4,.671E-5,0
HYPSO-2,2024-149BR,2026-07-18T17:03:27.636192,14.98942135,.0001598,97.6837,275.5146,96.9663,263.1742,0,U,60531,999,10477,.70857E-4,.799E-5,0
LEMU NGE,2024-149BS,2026-07-18T17:01:33.524256,14.95067780,.0000532,97.6834,274.0322,102.1779,257.9501,0,U,60532,999,10466,.67771E-4,.686E-5,0
LEMUR-2-STELLA,2024-149BT,2026-07-18T18:41:30.283872,15.12413075,.0001246,97.6731,282.3852,124.1125,236.0223,0,U,60533,999,10527,.35988E-3,.6185E-4,0
SATELIOT_2,2024-149BU,2026-07-18T17:19:11.436096,14.96462901,.0001319,97.6817,274.1028,76.0483,284.0885,0,U,60534,999,10468,.33051E-4,.318E-5,0
NIGHTJAR,2024-149BV,2026-07-18T18:20:16.134432,14.99185535,.0002779,97.6846,276.0286,89.2700,270.8841,0,U,60535,999,14760,.18391E-3,.218E-4,0
LEMUR-2-MARHISYAM,2024-149BW,2026-07-18T18:30:26.589312,15.11816351,.0002282,97.6874,282.8575,64.0829,296.0636,0,U,60536,999,10525,.30038E-3,.5065E-4,0
SATELIOT_4,2024-149BX,2026-07-18T17:25:35.975712,14.96762143,.0000763,97.6724,273.6128,312.3293,47.7863,0,U,60537,999,10469,.42969E-4,.434E-5,0
PICO-02A021,2024-149BY,2026-07-18T10:45:55.360224,15.03502570,.00039021,97.6730,278.0155,266.4900,93.5879,0,U,60538,999,10443,.17431317E-3,.2316E-4,0
ICEYE-X43,2024-149BZ,2026-07-18T18:54:12.381120,14.99791438,.0006373,97.6788,276.3284,331.4769,28.6105,0,U,60539,999,10485,.50859E-4,.57E-5,0
HAWK-10A,2024-149CA,2026-07-18T17:28:37.670592,14.96594514,.0002747,97.6883,275.0977,348.6769,11.4390,0,U,60540,999,10470,.25212E-4,.23E-5,0
UMBRA-09,2024-149CB,2026-07-18T19:54:05.732064,15.18912204,.0002021,97.6967,287.5968,193.2721,166.8460,0,U,60541,999,10552,.37063E-3,.7667E-4,0
QPS-SAR-8 (AMATERU-IV),2024-149CC,2026-07-18T18:57:24.696288,15.04409378,.0003203,97.6646,278.6793,31.1422,328.9993,0,U,60542,999,10502,.13968E-3,.1889E-4,0
ARCTIC WEATHER SATELLITE,2024-149CD,2026-07-18T18:54:56.096928,14.89806784,.0002676,97.6788,269.3482,43.1692,316.9736,0,U,60543,999,10400,.40612E-4,.336E-5,0
CAPELLA-15 (ACADIA-5),2024-149CE,2026-07-18T18:25:46.653312,14.92397955,.0003065,97.6759,271.8791,324.5067,35.5948,0,U,60544,999,10456,.15961E-3,.1579E-4,0
HAWK-10B,2024-149CF,2026-07-18T19:04:42.746880,14.96593783,.0005033,97.6801,274.4863,1.5215,358.6021,0,U,60545,999,10471,.33939E-4,.329E-5,0
ICEYE-X39,2024-149CG,2026-07-18T18:19:26.298048,15.00088707,.000684,97.6797,276.3631,36.6772,323.4918,0,U,60546,999,10485,.1752E-3,.2125E-4,0
UMBRA-10,2024-149CH,2026-07-18T19:53:26.344032,15.18912544,.0001922,97.6969,287.6268,159.4270,200.7041,0,U,60547,999,10553,.37699E-3,.78E-4,0
ICEYE-X33,2024-149CJ,2026-07-18T18:28:42.409056,15.00902716,.0001863,97.7374,278.7543,70.9954,289.1471,0,U,60548,999,10494,.19563E-3,.243E-4,0
ICEYE-X40,2024-149CK,2026-07-18T03:54:22.964256,14.98084258,.00036494,97.6805,275.1599,355.3306,4.7882,0,U,60549,999,10471,.13359194E-3,.1523E-4,0
SATELIOT_1,2024-149CL,2026-07-18T18:03:42.708960,14.98171451,.0005259,97.6734,275.1249,342.4307,17.6733,0,U,60550,999,10479,.11032E-3,.125E-4,0
